[{"OBJECT_NAME":"STARLINK-36418","OBJECT_ID":"2026-005U","EPOCH":"2026-03-09T12:24:33.246144","MEAN_MOTION":15.27602228,"ECCENTRICITY":0.00018181,"INCLINATION":43.0021,"RA_OF_ASC_NODE":238.6486,"ARG_OF_PERICENTER":284.6926,"MEAN_ANOMALY":75.3724,"EPHEMERIS_TYPE":0,"CLASSIFICATION_TYPE":"U","NORAD_CAT_ID":67422,"ELEMENT_SET_NO":999,"REV_AT_EPOCH":867,"BSTAR":0.0009444374,"MEAN_MOTION_DOT":0.00025836,"MEAN_MOTION_DDOT":0},{"OBJECT_NAME":"ATLAS CENTAUR 2 DEB","OBJECT_ID":"1963-047H","EPOCH":"2026-03-09T12:19:05.186208","MEAN_MOTION":13.85184807,"ECCENTRICITY":0.06358941,"INCLINATION":30.4264,"RA_OF_ASC_NODE":268.0385,"ARG_OF_PERICENTER":278.88,"MEAN_ANOMALY":74.0363,"EPHEMERIS_TYPE":0,"CLASSIFICATION_TYPE":"U","NORAD_CAT_ID":739,"ELEMENT_SET_NO":999,"REV_AT_EPOCH":12755,"BSTAR":7.4246784e-5,"MEAN_MOTION_DOT":5.52e-6,"MEAN_MOTION_DDOT":0}]
